start=new Date('2022-11-29T00:00:00.000Z').valueOf();
sats=[{"TIME_SYSTEM":"UTC","PERIOD":"95.592","RCS_SIZE":"LARGE","EPOCH":"2022-11-27T13:58:12.419616","SITE":"AFETR","RA_OF_ASC_NODE":"55.1385","APOAPSIS":"548.209","ECCENTRICITY":"0.00014300","GP_ID":"218987389","MEAN_MOTION_DDOT":"0.0000000000000","CENTER_NAME":"EARTH","DECAY_DATE":null,"MEAN_MOTION":"15.06398371","ELEMENT_SET_NO":"999","COUNTRY_CODE":"US","OBJECT_NAME":"STARLINK-1321","SEMIMAJOR_AXIS":"6925.354","BSTAR":"-0.00008592700000","OBJECT_ID":"2020-025AU","REV_AT_EPOCH":"14462","PERIAPSIS":"546.228","INCLINATION":"53.0553","NORAD_CAT_ID":"45573","TLE_LINE1":"1 45573U 20025AU  22331.58208819 -.00001561  00000-0 -85927-4 0  9995","TLE_LINE2":"2 45573  53.0553  55.1385 0001430  74.6228 285.4919 15.06398371144629","REF_FRAME":"TEME","OBJECT_TYPE":"PAYLOAD","LAUNCH_DATE":"2020-04-22","EPHEMERIS_TYPE":"0","MEAN_MOTION_DOT":"-0.00001561","MEAN_ELEMENT_THEORY":"SGP4","MEAN_ANOMALY":"285.4919","ARG_OF_PERICENTER":"74.6228","FILE":"3671921","CLASSIFICATION_TYPE":"U"},{"CENTER_NAME":"EARTH","MEAN_MOTION_DDOT":"0.0000000000000","GP_ID":"219000210","RA_OF_ASC_NODE":"51.4325","APOAPSIS":"548.095","ECCENTRICITY":"0.00012580","EPOCH":"2022-11-28T09:41:50.618976","SITE":"AFETR","RCS_SIZE":"LARGE","PERIOD":"95.592","TIME_SYSTEM":"UTC","OBJECT_NAME":"STARLINK-1324","COUNTRY_CODE":"US","MEAN_MOTION":"15.06396598","ELEMENT_SET_NO":"999","DECAY_DATE":null,"LAUNCH_DATE":"2020-04-22","EPHEMERIS_TYPE":"0","OBJECT_TYPE":"PAYLOAD","REF_FRAME":"TEME","TLE_LINE2":"2 45574  53.0561  51.4325 0001258  68.0045 292.1077 15.06396598144454","NORAD_CAT_ID":"45574","TLE_LINE1":"1 45574U 20025AV  22332.40405809 -.00001980  00000-0 -11409-3 0  9994","INCLINATION":"53.0561","PERIAPSIS":"546.353","REV_AT_EPOCH":"14445","BSTAR":"-0.00011409000000","OBJECT_ID":"2020-025AV","SEMIMAJOR_AXIS":"6925.359","CLASSIFICATION_TYPE":"U","ARG_OF_PERICENTER":"68.0045","FILE":"3672222","MEAN_MOTION_DOT":"-0.00001980","MEAN_ELEMENT_THEORY":"SGP4","MEAN_ANOMALY":"292.1077"},{"OBJECT_ID":"2020-025AW","BSTAR":"0.00124830000000","SEMIMAJOR_AXIS":"6875.449","TLE_LINE1":"1 45575U 20025AW  22331.44069908  .00029372  00000-0  12483-2 0  9999","NORAD_CAT_ID":"45575","PERIAPSIS":"494.944","REV_AT_EPOCH":"14523","INCLINATION":"53.0049","REF_FRAME":"TEME","TLE_LINE2":"2 45575  53.0049  29.9112 0003447  17.7191 342.3924 15.22829090145237","EPHEMERIS_TYPE":"0","LAUNCH_DATE":"2020-04-22","OBJECT_TYPE":"PAYLOAD","MEAN_ELEMENT_THEORY":"SGP4","MEAN_ANOMALY":"342.3924","MEAN_MOTION_DOT":"0.00029372","CLASSIFICATION_TYPE":"U","FILE":"3671616","ARG_OF_PERICENTER":"17.7191","RCS_SIZE":"LARGE","TIME_SYSTEM":"UTC","PERIOD":"94.561","ECCENTRICITY":"0.00034470","RA_OF_ASC_NODE":"29.9112","APOAPSIS":"499.684","SITE":"AFETR","EPOCH":"2022-11-27T10:34:36.400512","CENTER_NAME":"EARTH","MEAN_MOTION_DDOT":"0.0000000000000","GP_ID":"218954388","DECAY_DATE":null,"ELEMENT_SET_NO":"999","MEAN_MOTION":"15.22829090","COUNTRY_CODE":"US","OBJECT_NAME":"STARLINK-1326"},{"SEMIMAJOR_AXIS":"6925.360","BSTAR":"-0.00006458700000","OBJECT_ID":"2020-025AX","PERIAPSIS":"546.073","REV_AT_EPOCH":"14445","INCLINATION":"53.0552","NORAD_CAT_ID":"45576","TLE_LINE1":"1 45576U 20025AX  22332.42984949 -.00001243  00000-0 -64587-4 0  9993","TLE_LINE2":"2 45576  53.0552  51.3395 0001663  63.6253 296.4907 15.06396345144453","REF_FRAME":"TEME","OBJECT_TYPE":"PAYLOAD","LAUNCH_DATE":"2020-04-22","EPHEMERIS_TYPE":"0","MEAN_MOTION_DOT":"-0.00001243","MEAN_ELEMENT_THEORY":"SGP4","MEAN_ANOMALY":"296.4907","ARG_OF_PERICENTER":"63.6253","FILE":"3672505","CLASSIFICATION_TYPE":"U","PERIOD":"95.592","TIME_SYSTEM":"UTC","RCS_SIZE":"LARGE","EPOCH":"2022-11-28T10:18:58.995936","SITE":"AFETR","APOAPSIS":"548.376","RA_OF_ASC_NODE":"51.3395","ECCENTRICITY":"0.00016630","MEAN_MOTION_DDOT":"0.0000000000000","GP_ID":"219006198","CENTER_NAME":"EARTH","DECAY_DATE":null,"MEAN_MOTION":"15.06396345","ELEMENT_SET_NO":"999","COUNTRY_CODE":"US","OBJECT_NAME":"STARLINK-1328"},{"OBJECT_NAME":"STARLINK-1330","COUNTRY_CODE":"US","MEAN_MOTION":"15.10702244","ELEMENT_SET_NO":"999","DECAY_DATE":null,"GP_ID":"219006206","MEAN_MOTION_DDOT":"0.0000000000000","CENTER_NAME":"EARTH","EPOCH":"2022-11-28T10:34:04.704672","SITE":"AFETR","APOAPSIS":"534.775","RA_OF_ASC_NODE":"49.7674","ECCENTRICITY":"0.00010350","PERIOD":"95.320","TIME_SYSTEM":"UTC","RCS_SIZE":"LARGE","ARG_OF_PERICENTER":"13.8417","FILE":"3672506","CLASSIFICATION_TYPE":"U","MEAN_MOTION_DOT":"0.00017171","MEAN_ELEMENT_THEORY":"SGP4","MEAN_ANOMALY":"346.2602","OBJECT_TYPE":"PAYLOAD","LAUNCH_DATE":"2020-04-22","EPHEMERIS_TYPE":"0","TLE_LINE2":"2 45577  53.0546  49.7674 0001035  13.8417 346.2602 15.10702244144461","REF_FRAME":"TEME","PERIAPSIS":"533.344","INCLINATION":"53.0546","REV_AT_EPOCH":"14446","NORAD_CAT_ID":"45577","TLE_LINE1":"1 45577U 20025AY  22332.44033223  .00017171  00000-0  10399-2 0  9991","SEMIMAJOR_AXIS":"6912.194","BSTAR":"0.00103990000000","OBJECT_ID":"2020-025AY"},{"COUNTRY_CODE":"US","OBJECT_NAME":"STARLINK-1331","DECAY_DATE":null,"ELEMENT_SET_NO":"999","MEAN_MOTION":"15.06394716","MEAN_MOTION_DDOT":"0.0000000000000","GP_ID":"218988141","CENTER_NAME":"EARTH","TIME_SYSTEM":"UTC","PERIOD":"95.592","RCS_SIZE":"LARGE","SITE":"AFETR","EPOCH":"2022-11-27T15:01:54.095520","ECCENTRICITY":"0.00014980","APOAPSIS":"548.267","RA_OF_ASC_NODE":"54.9360","MEAN_ANOMALY":"288.4281","MEAN_ELEMENT_THEORY":"SGP4","MEAN_MOTION_DOT":"-0.00000331","FILE":"3671921","ARG_OF_PERICENTER":"71.6870","CLASSIFICATION_TYPE":"U","REF_FRAME":"TEME","TLE_LINE2":"2 45578  53.0581  54.9360 0001498  71.6870 288.4281 15.06394716144948","OBJECT_TYPE":"PAYLOAD","EPHEMERIS_TYPE":"0","LAUNCH_DATE":"2020-04-22","SEMIMAJOR_AXIS":"6925.365","OBJECT_ID":"2020-025AZ","BSTAR":"-0.00000332760000","PERIAPSIS":"546.192","INCLINATION":"53.0581","REV_AT_EPOCH":"14494","TLE_LINE1":"1 45578U 20025AZ  22331.62632055 -.00000331  00000-0 -33276-5 0  9993","NORAD_CAT_ID":"45578"},{"DECAY_DATE":null,"MEAN_MOTION":"15.06393505","ELEMENT_SET_NO":"999","COUNTRY_CODE":"US","OBJECT_NAME":"STARLINK-1332","RCS_SIZE":"LARGE","TIME_SYSTEM":"UTC","PERIOD":"95.593","RA_OF_ASC_NODE":"12.3783","APOAPSIS":"548.233","ECCENTRICITY":"0.00014430","EPOCH":"2022-11-28T05:32:23.920224","SITE":"AFETR","CENTER_NAME":"EARTH","GP_ID":"219000506","MEAN_MOTION_DDOT":"0.0000000000000","MEAN_MOTION_DOT":"-0.00001168","MEAN_ELEMENT_THEORY":"SGP4","MEAN_ANOMALY":"276.3239","CLASSIFICATION_TYPE":"U","ARG_OF_PERICENTER":"83.7914","FILE":"3672223","BSTAR":"-0.00005957200000","OBJECT_ID":"2020-025BA","SEMIMAJOR_AXIS":"6925.368","NORAD_CAT_ID":"45579","TLE_LINE1":"1 45579U 20025BA  22332.23083241 -.00001168  00000-0 -59572-4 0  9994","PERIAPSIS":"546.234","REV_AT_EPOCH":"14499","INCLINATION":"53.0570","REF_FRAME":"TEME","TLE_LINE2":"2 45579  53.0570  12.3783 0001443  83.7914 276.3239 15.06393505144996","LAUNCH_DATE":"2020-04-22","EPHEMERIS_TYPE":"0","OBJECT_TYPE":"PAYLOAD"},{"TLE_LINE2":"2 45580  53.0573  61.3235 0001516  77.6038 282.5120 15.06399014144312","REF_FRAME":"TEME","EPHEMERIS_TYPE":"0","LAUNCH_DATE":"2020-04-22","OBJECT_TYPE":"PAYLOAD","OBJECT_ID":"2020-025BB","BSTAR":"-0.00000564690000","SEMIMAJOR_AXIS":"6925.352","TLE_LINE1":"1 45580U 20025BB  22332.42892548 -.00000366  00000-0 -56469-5 0  9997","NORAD_CAT_ID":"45580","INCLINATION":"53.0573","PERIAPSIS":"546.167","REV_AT_EPOCH":"14431","MEAN_ANOMALY":"282.5120","MEAN_ELEMENT_THEORY":"SGP4","MEAN_MOTION_DOT":"-0.00000366","CLASSIFICATION_TYPE":"U","FILE":"3672506","ARG_OF_PERICENTER":"77.6038","CENTER_NAME":"EARTH","MEAN_MOTION_DDOT":"0.0000000000000","GP_ID":"219006215","RCS_SIZE":"LARGE","TIME_SYSTEM":"UTC","PERIOD":"95.592","ECCENTRICITY":"0.00015160","APOAPSIS":"548.266","RA_OF_ASC_NODE":"61.3235","SITE":"AFETR","EPOCH":"2022-11-28T10:17:39.161472","COUNTRY_CODE":"US","OBJECT_NAME":"STARLINK-1333","DECAY_DATE":null,"ELEMENT_SET_NO":"999","MEAN_MOTION":"15.06399014"},{"MEAN_MOTION_DDOT":"0.0000000000000","GP_ID":"218995109","CENTER_NAME":"EARTH","EPOCH":"2022-11-27T23:15:30.918240","SITE":"AFETR","APOAPSIS":"548.264","RA_OF_ASC_NODE":"53.3939","ECCENTRICITY":"0.00014930","TIME_SYSTEM":"UTC","PERIOD":"95.592","RCS_SIZE":"LARGE","OBJECT_NAME":"STARLINK-1335","COUNTRY_CODE":"US","MEAN_MOTION":"15.06394781","ELEMENT_SET_NO":"999","DECAY_DATE":null,"OBJECT_TYPE":"PAYLOAD","LAUNCH_DATE":"2020-04-22","EPHEMERIS_TYPE":"0","TLE_LINE2":"2 45581  53.0571  53.3939 0001493  76.9469 283.1686 15.06394781144384","REF_FRAME":"TEME","PERIAPSIS":"546.196","INCLINATION":"53.0571","REV_AT_EPOCH":"14438","NORAD_CAT_ID":"45581","TLE_LINE1":"1 45581U 20025BC  22331.96910785 -.00000469  00000-0 -12568-4 0  9995","SEMIMAJOR_AXIS":"6925.365","BSTAR":"-0.00001256800000","OBJECT_ID":"2020-025BC","ARG_OF_PERICENTER":"76.9469","FILE":"3671960","CLASSIFICATION_TYPE":"U","MEAN_MOTION_DOT":"-0.00000469","MEAN_ANOMALY":"283.1686","MEAN_ELEMENT_THEORY":"SGP4"},{"COUNTRY_CODE":"US","OBJECT_NAME":"STARLINK-1337","DECAY_DATE":null,"ELEMENT_SET_NO":"999","MEAN_MOTION":"15.06397773","CENTER_NAME":"EARTH","GP_ID":"219006409","MEAN_MOTION_DDOT":"0.0000000000000","RCS_SIZE":"LARGE","TIME_SYSTEM":"UTC","PERIOD":"95.592","ECCENTRICITY":"0.00017760","RA_OF_ASC_NODE":"51.2206","APOAPSIS":"548.450","SITE":"AFETR","EPOCH":"2022-11-28T10:56:08.146176","MEAN_ANOMALY":"308.5171","MEAN_ELEMENT_THEORY":"SGP4","MEAN_MOTION_DOT":"0.00000022","CLASSIFICATION_TYPE":"U","FILE":"3672521","ARG_OF_PERICENTER":"51.5978","TLE_LINE2":"2 45582  53.0566  51.2206 0001776  51.5978 308.5171 15.06397773144454","REF_FRAME":"TEME","EPHEMERIS_TYPE":"0","LAUNCH_DATE":"2020-04-22","OBJECT_TYPE":"PAYLOAD","OBJECT_ID":"2020-025BD","BSTAR":"0.00002035100000","SEMIMAJOR_AXIS":"6925.355","TLE_LINE1":"1 45582U 20025BD  22332.45564984  .00000022  00000-0  20351-4 0  9999","NORAD_CAT_ID":"45582","PERIAPSIS":"545.990","INCLINATION":"53.0566","REV_AT_EPOCH":"14445"}];
